{
  "type": "FeatureCollection",
  "features": [
    {
      "type": "Feature",
      "properties": {},
      "geometry": {
        "type": "LineString",
        "coordinates": [
          [120.892737, 14.087596],
          [120.893575, 14.088055],
          [120.893243, 14.088482],
          [120.893024, 14.089092],
          [120.893712, 14.089741],
          [120.892434, 14.0932],
          [120.891151, 14.095861],
          [120.890312, 14.096728],
          [120.889954, 14.098368],
          [120.887693, 14.103741],
          [120.885384, 14.108456],
          [120.885026, 14.10927],
          [120.884282, 14.109857],
          [120.884421, 14.110752],
          [120.886939, 14.112176],
          [120.890876, 14.111646],
          [120.896025, 14.113619],
          [120.896592, 14.112645],
          [120.89821, 14.113202],
          [120.898451, 14.113043],
          [120.899971, 14.113385],
          [120.899749, 14.114055],
          [120.900604, 14.114271],
          [120.900891, 14.114081],
          [120.902678, 14.114593],
          [120.902952, 14.114675],
          [120.903317, 14.115403],
          [120.903219, 14.115858],
          [120.90678, 14.116503],
          [120.909878, 14.117522],
          [120.917989, 14.120041],
          [120.918602, 14.120003],
          [120.924674, 14.121097],
          [120.927778, 14.12099],
          [120.928708, 14.12407],
          [120.929501, 14.123699],
          [120.929796, 14.123252],
          [120.929404, 14.124513],
          [120.934253, 14.12575],
          [120.934562, 14.126045],
          [120.936725, 14.126546],
          [120.939183, 14.127485],
          [120.941305, 14.127798],
          [120.948907, 14.131407],
          [120.954469, 14.132272],
          [120.955373, 14.133954],
          [120.956259, 14.134195],
          [120.958417, 14.134705],
          [120.959819, 14.134911],
          [120.961536, 14.134841],
          [120.96208, 14.134367],
          [120.964478, 14.134152],
          [120.964943, 14.134796],
          [120.965815, 14.135158],
          [120.9666, 14.135068],
          [120.96749, 14.136707],
          [120.969327, 14.137031],
          [120.970056, 14.138635],
          [120.972762, 14.138775],
          [120.975274, 14.139578],
          [120.97788, 14.139768],
          [120.989208, 14.143008],
          [120.99008, 14.143635],
          [120.996968, 14.146466],
          [121.001014, 14.146886],
          [121.001987, 14.149248],
          [121.001669, 14.150424],
          [121.004629, 14.152401],
          [121.015292, 14.155673],
          [121.022444, 14.155982],
          [121.026264, 14.157388],
          [121.031802, 14.153594],
          [121.034347, 14.153184],
          [121.035854, 14.151786],
          [121.026343, 14.13468],
          [121.013269, 14.127102],
          [121.013302, 14.126517],
          [121.012754, 14.125985],
          [121.011618, 14.125353],
          [121.011411, 14.124989],
          [121.010654, 14.124551],
          [121.010257, 14.124145],
          [121.00993, 14.122849],
          [121.009167, 14.123121],
          [121.008939, 14.123418],
          [121.00824, 14.123343],
          [121.007128, 14.121506],
          [120.988689, 14.119989],
          [120.980334, 14.120094],
          [120.976084, 14.114782],
          [120.972477, 14.105641],
          [120.972214, 14.104885],
          [120.972422, 14.104088],
          [120.971429, 14.097892],
          [120.967977, 14.098631],
          [120.95129, 14.091307],
          [120.9464, 14.093329],
          [120.93843, 14.086289],
          [120.933104, 14.085046],
          [120.919042, 14.083199],
          [120.911311, 14.080832],
          [120.90244, 14.076783],
          [120.897588, 14.079162],
          [120.892737, 14.087596]
        ]
      }
    }
  ]
}